[{"OBJECT_NAME":"OBJECT A","OBJECT_ID":"2024-203A","EPOCH":"2026-03-09T23:31:20.812800","MEAN_MOTION":15.27300571,"ECCENTRICITY":0.00108989,"INCLINATION":97.4288,"RA_OF_ASC_NODE":139.5608,"ARG_OF_PERICENTER":322.6893,"MEAN_ANOMALY":37.3588,"EPHEMERIS_TYPE":0,"CLASSIFICATION_TYPE":"U","NORAD_CAT_ID":61869,"ELEMENT_SET_NO":999,"REV_AT_EPOCH":7380,"BSTAR":0.00061472876,"MEAN_MOTION_DOT":0.00016411,"MEAN_MOTION_DDOT":0},{"OBJECT_NAME":"STARLINK-34819","OBJECT_ID":"2025-161AB","EPOCH":"2026-03-09T22:38:59.390016","MEAN_MOTION":15.30207515,"ECCENTRICITY":0.000106,"INCLINATION":53.161,"RA_OF_ASC_NODE":293.3789,"ARG_OF_PERICENTER":78.2475,"MEAN_ANOMALY":281.8644,"EPHEMERIS_TYPE":0,"CLASSIFICATION_TYPE":"U","NORAD_CAT_ID":65040,"ELEMENT_SET_NO":999,"REV_AT_EPOCH":3426,"BSTAR":0.0012268651,"MEAN_MOTION_DOT":0.00036162,"MEAN_MOTION_DDOT":0}]
